[{"OBJECT_NAME":"STARLINK-35019","OBJECT_ID":"2025-198X","EPOCH":"2026-03-09T22:15:22.550976","MEAN_MOTION":15.30209503,"ECCENTRICITY":9.989e-5,"INCLINATION":53.1569,"RA_OF_ASC_NODE":270.0896,"ARG_OF_PERICENTER":204.1444,"MEAN_ANOMALY":155.951,"EPHEMERIS_TYPE":0,"CLASSIFICATION_TYPE":"U","NORAD_CAT_ID":65513,"ELEMENT_SET_NO":999,"REV_AT_EPOCH":2865,"BSTAR":0.00093261601,"MEAN_MOTION_DOT":0.00027372,"MEAN_MOTION_DDOT":0},{"OBJECT_NAME":"CZ-2D R\/B","OBJECT_ID":"2025-227B","EPOCH":"2026-03-09T22:11:26.043072","MEAN_MOTION":15.30393637,"ECCENTRICITY":0.00198129,"INCLINATION":80.1514,"RA_OF_ASC_NODE":267.3771,"ARG_OF_PERICENTER":270.3655,"MEAN_ANOMALY":89.5307,"EPHEMERIS_TYPE":0,"CLASSIFICATION_TYPE":"U","NORAD_CAT_ID":65946,"ELEMENT_SET_NO":999,"REV_AT_EPOCH":2254,"BSTAR":0.00032251975,"MEAN_MOTION_DOT":9.557e-5,"MEAN_MOTION_DDOT":0}]
